OBJECT B                
1 51825U 22019B   25349.96471154  .00031611  00000+0  51233-3 0  9993
2 51825  97.3681  69.6654 0009050  82.0494 278.1785 15.52679004211140
